[{"OBJECT_NAME":"JILIN-1 05","OBJECT_ID":"2017-074B","EPOCH":"2026-03-09T21:56:30.612480","MEAN_MOTION":15.3245271,"ECCENTRICITY":0.00045948,"INCLINATION":97.4781,"RA_OF_ASC_NODE":173.8936,"ARG_OF_PERICENTER":206.4038,"MEAN_ANOMALY":153.6971,"EPHEMERIS_TYPE":0,"CLASSIFICATION_TYPE":"U","NORAD_CAT_ID":43023,"ELEMENT_SET_NO":999,"REV_AT_EPOCH":45879,"BSTAR":0.00026108793,"MEAN_MOTION_DOT":8.104e-5,"MEAN_MOTION_DDOT":0},{"OBJECT_NAME":"STARLINK-2531","OBJECT_ID":"2021-040BH","EPOCH":"2026-03-09T15:39:07.895808","MEAN_MOTION":15.30179272,"ECCENTRICITY":0.00011615,"INCLINATION":53.1602,"RA_OF_ASC_NODE":194.2459,"ARG_OF_PERICENTER":115.6639,"MEAN_ANOMALY":244.4482,"EPHEMERIS_TYPE":0,"CLASSIFICATION_TYPE":"U","NORAD_CAT_ID":48483,"ELEMENT_SET_NO":999,"REV_AT_EPOCH":26645,"BSTAR":-9.0250944e-5,"MEAN_MOTION_DOT":-3.029e-5,"MEAN_MOTION_DDOT":0}]
